STARLINK-5755           
1 55600U 23020AH  26067.21131571  .00001324  00000+0  11301-3 0  9993
2 55600  43.0059 359.9807 0001061 282.3198  77.7525 15.02545506168844
STARLING 4              
1 57386U 23100A   26066.02836485 -.00000009  00000+0  55676-5 0  9994
2 57386  99.5115  59.9711 0007803  83.0949 277.1159 15.06148396144525
